DELTA 2 R/B             
1 25876U 99041E   26063.69865217  .00001762  00000+0  32119-3 0  9996
2 25876  51.7644 321.2151 0502346 333.7002  23.9194 14.11821204362328
HELIOS 1B               
1 25977U 99064A   26063.53487976  .00003032  00000+0  33937-3 0  9999
2 25977  98.1701 325.6266 0002547  81.7315 278.4190 14.87673368684496
TERRA                   
1 25994U 99068A   26063.78487468  .00000631  00000+0  13779-3 0  9999
2 25994  97.9602 117.4068 0002392 163.1129 261.5498 14.61008869394363
SL-16 R/B               
1 26070U 00006B   26063.50166887  .00000193  00000+0  12216-3 0  9996
2 26070  71.0013 108.7468 0017152 197.3762 162.6776 14.15824965347828
TITAN 4B R/B            
1 26474U 00047B   26063.79336932  .00006081  00000+0  38011-3 0  9993
2 26474  67.9888  54.2774 0038095  41.1904 319.2109 15.09505319392179
ENVISAT                 
1 27386U 02009A   26063.80883890  .00000191  00000+0  75827-4 0  9991
2 27386  98.3720  17.5226 0001333  84.5011 308.0371 14.39034859258473
IDEFIX & ARIANE 42P R/B 
1 27422U 02021B   26063.81121945  .00000400  00000+0  16843-3 0  9998
2 27422  98.5866   2.4759 0011291 196.9068 163.1740 14.31022119243321
AQUA                    
1 27424U 02022A   26063.88715911  .00001506  00000+0  31040-3 0  9994
2 27424  98.4167  31.1649 0000622  61.1247 325.7482 14.61963487268030
CZ-4B R/B               
1 27432U 02024C   26063.57729847  .00000074  00000+0  60850-4 0  9995
2 27432  98.8850 117.0095 0050717  38.6002 133.7598 14.14546626228513
MIDORI II (ADEOS-II)    
1 27597U 02056A   26063.48333721  .00000458  00000+0  19793-3 0  9999
2 27597  98.7761  21.9252 0001781  50.0959 310.0379 14.29280605209557
H-2A R/B                
1 27601U 02056E   26063.81260356  .00000375  00000+0  14576-3 0  9997
2 27601  98.3194  24.3641 0070202 175.1553 196.2594 14.33757065213418
CZ-4B R/B               
1 28059U 03049C   26063.50099525  .00000621  00000+0  15405-3 0  9998
2 28059  98.6874  58.2023 0047075 247.0745 112.5479 14.55014781185841
CZ-2C R/B               
1 28222U 04012C   26063.17120259  .00071201  00000+0  75524-3 0  9993
2 28222  97.7244 127.9435 0013211 331.6844  28.3694 15.63762571203414
SL-16 R/B               
1 28353U 04021B   26063.78998639 -.00000171  00000+0 -64260-4 0  9996
2 28353  70.9991 242.7753 0003755  18.9321 341.1940 14.14599381122149
CZ-4B R/B               
1 28415U 04035C   26063.08471853  .00011746  00000+0  41410-3 0  9996
2 28415  97.3503  97.3943 0031572 351.8851   8.1874 15.28943125179053
CZ-2C R/B               
1 28480U 04046B   26063.36688739  .00000173  00000+0  79149-4 0  9997
2 28480  98.1987 338.6819 0139558 170.1424 190.2547 14.26990151107749
ARIANE 5 R/B            
1 28499U 04049H   26063.44529625  .00001197  00000+0  13803-3 0  9998
2 28499  98.2617 231.7063 0084315   8.9273 351.3417 14.85255229145017
